{
    "links": {
        "self": "http://www.neowsapp.com/rest/v1/neo/3792429?api_key=iIulBulltgU6a56xZRHN4H3l9WmuAYTsLGpBGhQ2"
    },
    "id": "3792429",
    "neo_reference_id": "3792429",
    "name": "(2017 XL61)",
    "designation": "2017 XL61",
    "nasa_jpl_url": "http://ssd.jpl.nasa.gov/sbdb.cgi?sstr=3792429",
    "absolute_magnitude_h": 23.0,
    "estimated_diameter": {
        "kilometers": {
            "estimated_diameter_min": 0.0667659413,
            "estimated_diameter_max": 0.1492931834
        },
        "meters": {
            "estimated_diameter_min": 66.7659413495,
            "estimated_diameter_max": 149.2931834393
        },
        "miles": {
            "estimated_diameter_min": 0.0414864197,
            "estimated_diameter_max": 0.0927664547
        },
        "feet": {
            "estimated_diameter_min": 219.0483710172,
            "estimated_diameter_max": 489.807047955
        }
    },
    "is_potentially_hazardous_asteroid": false,
    "close_approach_data": [
        {
            "close_approach_date": "2017-12-09",
            "close_approach_date_full": "2017-Dec-09 16:18",
            "epoch_date_close_approach": 1512836280000,
            "relative_velocity": {
                "kilometers_per_second": "22.2984882127",
                "kilometers_per_hour": "80274.5575656005",
                "miles_per_hour": "49879.4882829144"
            },
            "miss_distance": {
                "astronomical": "0.0998771916",
                "lunar": "38.8522275324",
                "kilometers": "14941415.124941892",
                "miles": "9284164.8461944296"
            },
            "orbiting_body": "Earth"
        }
    ],
    "orbital_data": {
        "orbit_id": "2",
        "orbit_determination_date": "2017-12-20 06:22:42",
        "first_observation_date": "2017-12-14",
        "last_observation_date": "2017-12-20",
        "data_arc_in_days": 6,
        "observations_used": 49,
        "orbit_uncertainty": "9",
        "minimum_orbit_intersection": ".028513",
        "jupiter_tisserand_invariant": "3.939",
        "epoch_osculation": "2458102.5",
        "eccentricity": ".6412709155942363",
        "semi_major_axis": "1.698455238368686",
        "inclination": "3.715491475067493",
        "ascending_node_longitude": "45.97916317767258",
        "orbital_period": "808.4991834101444",
        "perihelion_distance": ".6092852925641717",
        "perihelion_argument": "297.9404734425859",
        "aphelion_distance": "2.7876251841732",
        "perihelion_time": "2458049.856254010103",
        "mean_anomaly": "23.44065268739903",
        "mean_motion": ".4452694664224234",
        "equinox": "J2000",
        "orbit_class": {
            "orbit_class_type": "APO",
            "orbit_class_description": "Near-Earth asteroid orbits which cross the Earth’s orbit similar to that of 1862 Apollo",
            "orbit_class_range": "a (semi-major axis) > 1.0 AU; q (perihelion) < 1.017 AU"
        }
    },
    "is_sentry_object": false
}